[{"OBJECT_NAME":"FENGYUN 1C DEB","OBJECT_ID":"1999-025BGL","EPOCH":"2026-03-28T19:19:50.556000","MEAN_MOTION":15.52937454,"ECCENTRICITY":0.00338312,"INCLINATION":98.9808,"RA_OF_ASC_NODE":221.1257,"ARG_OF_PERICENTER":130.6253,"MEAN_ANOMALY":229.7946,"EPHEMERIS_TYPE":0,"CLASSIFICATION_TYPE":"U","NORAD_CAT_ID":31090,"ELEMENT_SET_NO":999,"REV_AT_EPOCH":2472,"BSTAR":0.002514288,"MEAN_MOTION_DOT":0.00163142,"MEAN_MOTION_DDOT":0},{"OBJECT_NAME":"FENGYUN 1C DEB","OBJECT_ID":"1999-025BGM","EPOCH":"2026-03-28T21:09:54.638496","MEAN_MOTION":13.54280972,"ECCENTRICITY":0.029131,"INCLINATION":99.2393,"RA_OF_ASC_NODE":63.0468,"ARG_OF_PERICENTER":59.1989,"MEAN_ANOMALY":303.7479,"EPHEMERIS_TYPE":0,"CLASSIFICATION_TYPE":"U","NORAD_CAT_ID":31091,"ELEMENT_SET_NO":999,"REV_AT_EPOCH":63076,"BSTAR":0.0010655755,"MEAN_MOTION_DOT":9.12e-6,"MEAN_MOTION_DDOT":0},{"OBJECT_NAME":"FENGYUN 1C DEB","OBJECT_ID":"1999-025BGN","EPOCH":"2026-03-28T06:52:52.635648","MEAN_MOTION":13.46739231,"ECCENTRICITY":0.032719,"INCLINATION":99.7218,"RA_OF_ASC_NODE":205.1823,"ARG_OF_PERICENTER":235.529,"MEAN_ANOMALY":121.4532,"EPHEMERIS_TYPE":0,"CLASSIFICATION_TYPE":"U","NORAD_CAT_ID":31092,"ELEMENT_SET_NO":999,"REV_AT_EPOCH":93302,"BSTAR":0.0013283,"MEAN_MOTION_DOT":1.067e-5,"MEAN_MOTION_DDOT":0},{"OBJECT_NAME":"FENGYUN 1C DEB","OBJECT_ID":"1999-025BGP","EPOCH":"2026-03-28T06:21:40.828896","MEAN_MOTION":13.80736899,"ECCENTRICITY":0.0207715,"INCLINATION":98.5955,"RA_OF_ASC_NODE":281.8534,"ARG_OF_PERICENTER":297.4293,"MEAN_ANOMALY":60.5872,"EPHEMERIS_TYPE":0,"CLASSIFICATION_TYPE":"U","NORAD_CAT_ID":31093,"ELEMENT_SET_NO":999,"REV_AT_EPOCH":95963,"BSTAR":0.00036077,"MEAN_MOTION_DOT":4.06e-6,"MEAN_MOTION_DDOT":0},{"OBJECT_NAME":"FENGYUN 1C DEB","OBJECT_ID":"1999-025BGQ","EPOCH":"2026-03-28T21:29:50.675424","MEAN_MOTION":14.02590894,"ECCENTRICITY":0.01056001,"INCLINATION":98.8559,"RA_OF_ASC_NODE":317.8105,"ARG_OF_PERICENTER":111.1019,"MEAN_ANOMALY":250.1476,"EPHEMERIS_TYPE":0,"CLASSIFICATION_TYPE":"U","NORAD_CAT_ID":31094,"ELEMENT_SET_NO":999,"REV_AT_EPOCH":97107,"BSTAR":0.0011420543,"MEAN_MOTION_DOT":1.807e-5,"MEAN_MOTION_DDOT":0},{"OBJECT_NAME":"FENGYUN 1C DEB","OBJECT_ID":"1999-025BGR","EPOCH":"2026-03-28T14:25:48.673920","MEAN_MOTION":13.06701319,"ECCENTRICITY":0.049819,"INCLINATION":98.5732,"RA_OF_ASC_NODE":214.0533,"ARG_OF_PERICENTER":298.463,"MEAN_ANOMALY":56.7155,"EPHEMERIS_TYPE":0,"CLASSIFICATION_TYPE":"U","NORAD_CAT_ID":31095,"ELEMENT_SET_NO":999,"REV_AT_EPOCH":90830,"BSTAR":-0.00028729,"MEAN_MOTION_DOT":-2.09e-6,"MEAN_MOTION_DDOT":0},{"OBJECT_NAME":"FENGYUN 1C DEB","OBJECT_ID":"1999-025BGV","EPOCH":"2026-03-27T16:13:37.180128","MEAN_MOTION":14.28085063,"ECCENTRICITY":0.00631779,"INCLINATION":98.9304,"RA_OF_ASC_NODE":346.564,"ARG_OF_PERICENTER":337.7457,"MEAN_ANOMALY":51.29,"EPHEMERIS_TYPE":0,"CLASSIFICATION_TYPE":"U","NORAD_CAT_ID":31099,"ELEMENT_SET_NO":999,"REV_AT_EPOCH":98969,"BSTAR":0.00023937724,"MEAN_MOTION_DOT":5.61e-6,"MEAN_MOTION_DDOT":0},{"OBJECT_NAME":"FENGYUN 1C DEB","OBJECT_ID":"1999-025BGY","EPOCH":"2026-03-28T06:20:54.598848","MEAN_MOTION":14.28139113,"ECCENTRICITY":0.0210532,"INCLINATION":99.0508,"RA_OF_ASC_NODE":26.8438,"ARG_OF_PERICENTER":221.973,"MEAN_ANOMALY":136.5151,"EPHEMERIS_TYPE":0,"CLASSIFICATION_TYPE":"U","NORAD_CAT_ID":31146,"ELEMENT_SET_NO":999,"REV_AT_EPOCH":98271,"BSTAR":0.00032908,"MEAN_MOTION_DOT":9.83e-6,"MEAN_MOTION_DDOT":0},{"OBJECT_NAME":"FENGYUN 1C DEB","OBJECT_ID":"1999-025BHA","EPOCH":"2026-03-28T16:00:28.418112","MEAN_MOTION":14.44152908,"ECCENTRICITY":0.0135416,"INCLINATION":98.8584,"RA_OF_ASC_NODE":342.6186,"ARG_OF_PERICENTER":94.5926,"MEAN_ANOMALY":267.0745,"EPHEMERIS_TYPE":0,"CLASSIFICATION_TYPE":"U","NORAD_CAT_ID":31148,"ELEMENT_SET_NO":999,"REV_AT_EPOCH":99059,"BSTAR":0.00074138,"MEAN_MOTION_DOT":2.792e-5,"MEAN_MOTION_DDOT":0},{"OBJECT_NAME":"FENGYUN 1C DEB","OBJECT_ID":"1999-025BHD","EPOCH":"2026-03-28T11:53:44.208384","MEAN_MOTION":14.27056962,"ECCENTRICITY":0.0056975,"INCLINATION":99.1323,"RA_OF_ASC_NODE":102.4726,"ARG_OF_PERICENTER":81.9595,"MEAN_ANOMALY":278.8043,"EPHEMERIS_TYPE":0,"CLASSIFICATION_TYPE":"U","NORAD_CAT_ID":31151,"ELEMENT_SET_NO":999,"REV_AT_EPOCH":97482,"BSTAR":0.0021904,"MEAN_MOTION_DOT":5.384e-5,"MEAN_MOTION_DDOT":0},{"OBJECT_NAME":"FENGYUN 1C DEB","OBJECT_ID":"1999-025BHE","EPOCH":"2026-03-28T10:38:50.496864","MEAN_MOTION":14.3593218,"ECCENTRICITY":0.01305565,"INCLINATION":98.4267,"RA_OF_ASC_NODE":76.6104,"ARG_OF_PERICENTER":77.7683,"MEAN_ANOMALY":72.8715,"EPHEMERIS_TYPE":0,"CLASSIFICATION_TYPE":"U","NORAD_CAT_ID":31152,"ELEMENT_SET_NO":999,"REV_AT_EPOCH":99565,"BSTAR":0.00011818665,"MEAN_MOTION_DOT":3.33e-6,"MEAN_MOTION_DDOT":0}]
