FENGYUN 1C DEB          
1 31090U 99025BGL 26087.80544625  .00163142  00000+0  25143-2 0  9998
2 31090  98.9808 221.1257 0033831 130.6253 229.7946 15.52937454 24724
FENGYUN 1C DEB          
1 31091U 99025BGM 26087.88188239  .00000912  00000+0  10656-2 0  9990
2 31091  99.2393  63.0468 0291310  59.1989 303.7479 13.54280972630761
FENGYUN 1C DEB          
1 31092U 99025BGN 26087.28672032  .00001067  00000+0  13283-2 0  9995
2 31092  99.7218 205.1823 0327190 235.5290 121.4532 13.46739231933026
FENGYUN 1C DEB          
1 31093U 99025BGP 26087.26505589  .00000406  00000+0  36077-3 0  9999
2 31093  98.5955 281.8534 0207715 297.4293  60.5872 13.80736899959632
FENGYUN 1C DEB          
1 31094U 99025BGQ 26087.89572541  .00001807  00000+0  11421-2 0  9992
2 31094  98.8559 317.8105 0105600 111.1019 250.1476 14.02590894971075
FENGYUN 1C DEB          
1 31095U 99025BGR 26087.60125780 -.00000209  00000+0 -28729-3 0  9998
2 31095  98.5732 214.0533 0498190 298.4630  56.7155 13.06701319908305
FENGYUN 1C DEB          
1 31099U 99025BGV 26086.67612477  .00000561  00000+0  23938-3 0  9998
2 31099  98.9304 346.5640 0063177 337.7457  51.2900 14.28085063989690
FENGYUN 1C DEB          
1 31146U 99025BGY 26087.26452082  .00000983  00000+0  32908-3 0  9996
2 31146  99.0508  26.8438 0210532 221.9730 136.5151 14.28139113982718
FENGYUN 1C DEB          
1 31148U 99025BHA 26087.66699558  .00002792  00000+0  74138-3 0  9994
2 31148  98.8584 342.6186 0135416  94.5926 267.0745 14.44152908990597
FENGYUN 1C DEB          
1 31151U 99025BHD 26087.49565056  .00005384  00000+0  21904-2 0  9996
2 31151  99.1323 102.4726 0056975  81.9595 278.8043 14.27056962974825
FENGYUN 1C DEB          
1 31152U 99025BHE 26087.44364001  .00000333  00000+0  11819-3 0  9993
2 31152  98.4267  76.6104 0130556  77.7683  72.8715 14.35932180995652
